{
  "norad_id": 61575,
  "name": "STARLINK-11376 [DTC]",
  "history": [
    {
      "epoch": "2026-03-28T17:52:56.948448",
      "apogee_km": 360.2334681502243,
      "perigee_km": 359.21820697786006,
      "latitude_deg": -51.931071126210895,
      "longitude_deg": 49.02994271996431,
      "semi_major_axis_km": 6737.862837564042,
      "eccentricity": 7.534e-05,
      "inclination_deg": 53.1596,
      "raan_deg": 202.2822,
      "arg_perigee_deg": 106.5603,
      "mean_anomaly_deg": 253.5498,
      "mean_motion_rev_day": 15.69710319
    }
  ]
}