{"fetched_at":"2026-03-30T06:02:59Z","count":15439,"tles":[{"name":"STARLINK-11376 [DTC]","line1":"1 61575U 24187B   26087.74510357  .00003948  00000+0  37421-4 0  9995","line2":"2 61575  53.1596 202.2822 0000753 106.5603 253.5498 15.69710319 83693","category":"Starlink"}]}